SCS-01 D                
1 63985U 25100D   26068.75607686  .00032471  00000+0  10528-2 0  9990
2 63985  97.3730 145.4097 0006346 266.2302  93.8214 15.31902149 45621
STARLINK-35088          
1 65344U 25189X   26068.69383873  .00039443  00000+0  13370-2 0  9994
2 65344  53.1599 206.9909 0001253  52.8689 307.2426 15.30195891 31112
